*******************************************************************************
JPL/HORIZONS               4276 Clifford (1981 XA)         2023-Sep-04 11:28:18
Rec #:    4276 (+COV) Soln.date: 2023-Aug-23_17:23:23   # obs: 3023 (1981-2023)
 
IAU76/J2000 helio. ecliptic osc. elements (au, days, deg., period=Julian yrs):
 
  EPOCH=  2457757.5 ! 2017-Jan-04.00 (TDB)         Residual RMS= .26443
   EC= .2037561850444865   QR= 1.600403772550767   TP= 2457461.0181039679
   OM= 76.88911313567304   W=  3.57005858746421    IN= 21.02707300397451
   A= 2.009941857620812    MA= 102.5479567021148   ADIST= 2.419479942690857
   PER= 2.8496             N= .345882693           ANGMOM= .023876216
   DAN= 1.60093            DDN= 2.41828            L= 80.22199999999999
   B= 1.2802471            MOID= .61570197         TP= 2016-Mar-13.5181039679
 
Asteroid physical parameters (km, seconds, rotational period in hours):
   GM= n.a.                RAD= 2.354              ROTPER= 3.23935
   H= 14.77                G= .150                 B-V= n.a.
                           ALBEDO= .087            STYP= Cb

ASTEROID comments: 
1: soln ref.= JPL#42, OCC=0
2: source=ORB
*******************************************************************************


*******************************************************************************
Ephemeris / API_USER Mon Sep  4 11:28:18 2023 Pasadena, USA      / Horizons
*******************************************************************************
Target body name: 4276 Clifford (1981 XA)         {source: JPL#42}
Center body name: Solar System Barycenter (0)     {source: DE441}
Center-site name: BODY CENTER
*******************************************************************************
Start time      : A.D. 2023-Aug-12 00:00:00.0000 TDB
Stop  time      : A.D. 2023-Aug-13 00:00:00.0000 TDB
Step-size       : 2880 minutes
*******************************************************************************
Center geodetic : 0.0, 0.0, 0.0                   {E-lon(deg),Lat(deg),Alt(km)}
Center cylindric: 0.0, 0.0, 0.0                   {E-lon(deg),Dxy(km),Dz(km)}
Center radii    : (undefined)
Small perturbers: Yes                             {source: SB441-N16}
Output units    : KM-S
Calendar mode   : Mixed Julian/Gregorian
Output type     : GEOMETRIC cartesian states
Output format   : 2 (position and velocity)
Reference frame : Ecliptic of J2000.0
*******************************************************************************
Initial IAU76/J2000 heliocentric ecliptic osculating elements (au, days, deg.):
  EPOCH=  2457757.5 ! 2017-Jan-04.00 (TDB)         Residual RMS= .26443        
   EC= .2037561850444865   QR= 1.600403772550767   TP= 2457461.0181039679      
   OM= 76.88911313567304   W=  3.57005858746421    IN= 21.02707300397451       
  Equivalent ICRF heliocentric cartesian coordinates (au, au/d):
   X=-1.870031551283535E+00  Y=-1.084943362003305E+00  Z= 2.058799116404947E-01
  VX= 2.251001911570272E-03 VY=-9.214864657012101E-03 VZ=-5.941811895411920E-03
Asteroid physical parameters (km, seconds, rotational period in hours):        
   GM= n.a.                RAD= 2.354              ROTPER= 3.23935             
   H= 14.77                G= .150                 B-V= n.a.                   
                           ALBEDO= .087            STYP= Cb                    
*******************************************************************************
JDTDB
   X     Y     Z
   VX    VY    VZ
*******************************************************************************
$$SOE
2460168.500000000 = A.D. 2023-Aug-12 00:00:00.0000 TDB 
 X = 8.261618390293270E+07 Y =-3.380701893078210E+08 Z =-6.091996312020054E+07
 VX= 1.542942591330030E+01 VY= 6.688762968860156E+00 VZ=-5.185211144463789E+00
$$EOE
*******************************************************************************
 
TIME

  Barycentric Dynamical Time ("TDB" or T_eph) output was requested. This
continuous coordinate time is equivalent to the relativistic proper time
of a clock at rest in a reference frame co-moving with the solar system
barycenter but outside the system's gravity well. It is the independent
variable in the solar system relativistic equations of motion.

  TDB runs at a uniform rate of one SI second per second and is independent
of irregularities in Earth's rotation.
 
CALENDAR SYSTEM

  Mixed calendar mode was active such that calendar dates after AD 1582-Oct-15
(if any) are in the modern Gregorian system. Dates prior to 1582-Oct-5 (if any)
are in the Julian calendar system, which is automatically extended for dates
prior to its adoption on 45-Jan-1 BC.  The Julian calendar is useful for
matching historical dates. The Gregorian calendar more accurately corresponds
to the Earth's orbital motion and seasons. A "Gregorian-only" calendar mode is
available if such physical events are the primary interest.

REFERENCE FRAME AND COORDINATES

  Ecliptic at the standard reference epoch

    Reference epoch: J2000.0
    X-Y plane: adopted Earth orbital plane at the reference epoch
               Note: IAU76 obliquity of 84381.448 arcseconds wrt ICRF X-Y plane
    X-axis   : ICRF
    Z-axis   : perpendicular to the X-Y plane in the directional (+ or -) sense
               of Earth's north pole at the reference epoch.

  Symbol meaning:

    JDTDB    Julian Day Number, Barycentric Dynamical Time
      X      X-component of position vector (km)
      Y      Y-component of position vector (km)
      Z      Z-component of position vector (km)
      VX     X-component of velocity vector (km/sec)                           
      VY     Y-component of velocity vector (km/sec)                           
      VZ     Z-component of velocity vector (km/sec)                           

ABERRATIONS AND CORRECTIONS

 Geometric state vectors have NO corrections or aberrations applied.

Computations by ...

    Solar System Dynamics Group, Horizons On-Line Ephemeris System
    4800 Oak Grove Drive, Jet Propulsion Laboratory
    Pasadena, CA  91109   USA

    General site: https://ssd.jpl.nasa.gov/
    Mailing list: https://ssd.jpl.nasa.gov/email_list.html
    System news : https://ssd.jpl.nasa.gov/horizons/news.html
    User Guide  : https://ssd.jpl.nasa.gov/horizons/manual.html
    Connect     : browser        https://ssd.jpl.nasa.gov/horizons/app.html#/x
                  API            https://ssd-api.jpl.nasa.gov/doc/horizons.html
                  command-line   telnet ssd.jpl.nasa.gov 6775
                  e-mail/batch   https://ssd.jpl.nasa.gov/ftp/ssd/hrzn_batch.txt
                  scripts        https://ssd.jpl.nasa.gov/ftp/ssd/SCRIPTS
    Author      : Jon.D.Giorgini@jpl.nasa.gov
*******************************************************************************
